GLOBALSTAR M067         
1 32263U 07048A   25322.13152045 -.00000078  00000+0  14421-3 0  9990
2 32263  51.9738 305.4743 0001137 330.5085 109.0815 12.40681980828598
GLOBALSTAR M070         
1 32264U 07048B   25322.87821949 -.00000069  00000+0  19272-3 0  9997
2 32264  51.9777  17.2474 0000561 126.2062  45.8516 12.62325809833204
GLOBALSTAR M066         
1 32265U 07048C   25322.90615713 -.00000090  00000+0  40729-4 0  9998
2 32265  51.9606 301.5678 0004930 327.9892  49.8455 12.30379274834348
GLOBALSTAR M068         
1 32266U 07048D   25322.95563836 -.00000030  00000+0  41116-3 0  9996
2 32266  51.9864 190.4670 0001991  96.7958 277.2976 12.62833653837114
GLOBALSTAR M079         
1 37188U 10054A   25322.92661647 -.00000092  00000+0  65130-4 0  9992
2 37188  52.0063  28.7340 0000263 153.1998  17.7839 12.62268556695992
GLOBALSTAR M074         
1 37189U 10054B   25322.95291028 -.00000085  00000+0  10222-3 0  9991
2 37189  52.0041  27.9518 0000412 103.1277  67.5358 12.62273234696605
GLOBALSTAR M076         
1 37190U 10054C   25322.90065028 -.00000094  00000+0  52211-4 0  9992
2 37190  52.0052  28.2977 0000233  87.8920  83.6809 12.62267422696316
GLOBALSTAR M077         
1 37191U 10054D   25322.56130970 -.00000070  00000+0  19634-3 0  9999
2 37191  52.0124 355.5475 0008926  93.1489  66.0783 11.95391628696499
